STARLINK-30967          
1 58416U 23180Q   26195.32837647  .00002316  00000+0  93767-4 0  9998
2 58416  43.0077  57.3575 0003033 251.7581 108.2941 15.27554941146994
STARLINK-30955          
1 58417U 23180R   26195.95011725  .00000667  00000+0  33769-4 0  9992
2 58417  43.0028  53.4220 0001841 258.6615 101.4030 15.27578786147093
STARLINK-30895          
1 58418U 23180S   26195.32196070 -.00000583  00000+0 -11667-4 0  9993
2 58418  43.0006  57.3266 0001069 264.6962  95.3767 15.27573881146882
STARLINK-30917          
1 58419U 23180T   26195.58433799 -.00005668  00000+0 -19644-3 0  9995
2 58419  43.0025 307.1257 0001740 238.9697 121.0984 15.27606276148307
STARLINK-30899          
1 58420U 23180U   26195.89244584 -.00000304  00000+0 -14933-5 0  9993
2 58420  43.0127  53.8546 0002139 265.1362  94.9245 15.27574124146966
STARLINK-30902          
1 58421U 23180V   26195.32452668 -.00000350  00000+0 -31932-5 0  9995
2 58421  43.0031  57.3396 0000973 274.6181  85.4559 15.27578130146886
STARLINK-30912          
1 58422U 23180W   26195.51265647  .00001392  00000+0  60088-4 0  9994
2 58422  43.0016 274.0705 0001160 269.3525  90.7193 15.27580338148691
STARLINK-30900          
1 58423U 23180X   26195.90657432  .00001604  00000+0  67802-4 0  9992
2 58423  43.0014  53.9198 0000910 284.0393  76.0357 15.27577966146970
STARLINK-30908          
1 58424U 23180Y   26195.90912999  .00000652  00000+0  33235-4 0  9990
2 58424  43.0044  53.8982 0002201 266.5397  93.5203 15.27574582147086
STARLINK-30869          
1 58437U 23183A   26195.93361747  .00010042  00000+0  37391-3 0  9999
2 58437  42.9986  43.0985 0001340 294.6890  65.3822 15.27581534146190
STARLINK-30969          
1 58438U 23183B   26195.92976434  .00002422  00000+0  97474-4 0  9996
2 58438  42.9952  43.0715 0000419   9.5451 350.5409 15.27580683146191
STARLINK-30951          
1 58439U 23183C   26195.93747947  .00005254  00000+0  20048-3 0  9991
2 58439  42.9988  43.1317 0000503  15.9804 344.1063 15.27548499146191
STARLINK-30950          
1 58440U 23183D   26195.34649785 -.00000441  00000+0 -65276-5 0  9998
2 58440  42.9984 209.8344 0000794 280.2249  79.8513 15.27574267148402
STARLINK-30942          
1 58441U 23183E   26195.96045945  .00000170  00000+0  15687-4 0  9992
2 58441  43.0024  42.4488 0000225 300.7039  59.3790 15.27579851146204
STARLINK-30959          
1 58442U 23183F   26195.31685894  .00000176  00000+0  15918-4 0  9998
2 58442  43.0053  46.2127 0000923 256.2114 103.8635 15.27581015146100
STARLINK-30971          
1 58443U 23183G   26195.89007746 -.00000825  00000+0 -20486-4 0  9995
2 58443  43.0019  43.6272 0000633 278.2559  81.8221 15.27570945146184
STARLINK-30963          
1 58444U 23183H   26194.92840157  .00000703  00000+0  35078-4 0  9996
2 58444  43.0022  48.4524 0001377 265.4144  94.6550 15.27579823146042
STARLINK-30961          
1 58445U 23183J   26194.99764253  .00001087  00000+0  49005-4 0  9997
2 58445  43.0027  48.1107 0001227 284.9155  75.1561 15.27583601146050
STARLINK-30975          
1 58446U 23183K   26194.99635433  .00001740  00000+0  72734-4 0  9996
2 58446  43.0047  48.0922 0001442 264.3370  95.7317 15.27582847146077
STARLINK-30976          
1 58447U 23183L   26195.92462986 -.00000006  00000+0  93137-5 0  9998
2 58447  43.0009  43.0581 0001451 264.1916  95.8770 15.27574891146193
STARLINK-30926          
1 58448U 23183M   26195.96301257  .00000514  00000+0  28200-4 0  9997
2 58448  43.0047  42.4228 0001454 274.2512  85.8174 15.27579664146206
STARLINK-30943          
1 58449U 23183N   26195.80977901 -.00001623  00000+0 -49464-4 0  9995
2 58449  43.0024  17.8476 0000999 258.5743 101.4996 15.27575596146473
STARLINK-30946          
1 58450U 23183P   26195.27205263  .00001015  00000+0  46405-4 0  9998
2 58450  43.0029  46.7308 0001312 269.7502  90.3200 15.27579843146093
STARLINK-30944          
1 58451U 23183Q   26195.00150320 -.00022110  00000+0 -79706-3 0  9993
2 58451  43.0014  48.1404 0000830 299.6252  60.4517 15.27550532146025
STARLINK-30928          
1 58452U 23183R   26195.00535472 -.00006437  00000+0 -22443-3 0  9999
2 58452  42.9998  48.1700 0001050 282.8343  77.2391 15.27604933146047
STARLINK-30957          
1 58453U 23183S   26195.00022015  .00003776  00000+0  14667-3 0  9994
2 58453  42.9996  48.1363 0000726 286.3967  73.6804 15.27574312146058
STARLINK-30966          
1 58454U 23183T   26195.00406702  .00001792  00000+0  74658-4 0  9997
2 58454  43.0062  48.1528 0002481 253.4420 106.6159 15.27569937146054
STARLINK-30935          
1 58455U 23183U   26195.55543441 -.00000459  00000+0 -71743-5 0  9994
2 58455  43.0031  45.4157 0001027 267.7886  92.2848 15.27572941146131
STARLINK-30958          
1 58457U 23183W   26195.90149354 -.00000207  00000+0  20083-5 0  9991
2 58457  43.0027  42.8603 0000712 284.2464  75.8309 15.27576565146192
STARLINK-30962          
1 58458U 23183X   26195.89377632 -.00001492  00000+0 -44696-4 0  9995
2 58458  43.0065  42.8024 0002817 259.3739 100.6795 15.27575618146192
