OBJECT_NAME,OBJECT_ID,EPOCH,MEAN_MOTION,ECCENTRICITY,INCLINATION,RA_OF_ASC_NODE,ARG_OF_PERICENTER,MEAN_ANOMALY,EPHEMERIS_TYPE,CLASSIFICATION_TYPE,NORAD_CAT_ID,ELEMENT_SET_NO,REV_AT_EPOCH,BSTAR,MEAN_MOTION_DOT,MEAN_MOTION_DDOT
STARLINK-30967,2023-180Q,2026-07-14T07:52:51.727008,15.27554941,.00030333,43.0077,57.3575,251.7581,108.2941,0,U,58416,999,14699,.9376728E-4,.2316E-4,0
STARLINK-30955,2023-180R,2026-07-14T22:48:10.130400,15.27578786,.00018415,43.0028,53.4220,258.6615,101.4030,0,U,58417,999,14709,.33769089E-4,.667E-5,0
STARLINK-30895,2023-180S,2026-07-14T07:43:37.404480,15.27573881,.00010697,43.0006,57.3266,264.6962,95.3767,0,U,58418,999,14688,-.11667441E-4,-.583E-5,0
STARLINK-30917,2023-180T,2026-07-14T14:01:26.802336,15.27606276,.000174,43.0025,307.1257,238.9697,121.0984,0,U,58419,999,14830,-.19644E-3,-.5668E-4,0
STARLINK-30899,2023-180U,2026-07-14T21:25:07.320576,15.27574124,.00021395,43.0127,53.8546,265.1362,94.9245,0,U,58420,999,14696,-.1493287E-5,-.304E-5,0
STARLINK-30902,2023-180V,2026-07-14T07:47:19.105152,15.27578130,.00009736,43.0031,57.3396,274.6181,85.4559,0,U,58421,999,14688,-.319319E-5,-.35E-5,0
STARLINK-30912,2023-180W,2026-07-14T12:18:13.519008,15.27580338,.000116,43.0016,274.0705,269.3525,90.7193,0,U,58422,999,14869,.60088E-4,.1392E-4,0
STARLINK-30900,2023-180X,2026-07-14T21:45:28.021248,15.27577966,.00009103,43.0014,53.9198,284.0393,76.0357,0,U,58423,999,14697,.67801937E-4,.1604E-4,0
STARLINK-30908,2023-180Y,2026-07-14T21:49:08.831136,15.27574582,.00022019,43.0044,53.8982,266.5397,93.5203,0,U,58424,999,14708,.33234597E-4,.652E-5,0
STARLINK-30869,2023-183A,2026-07-14T22:24:24.549408,15.27581534,.00013405,42.9986,43.0985,294.6890,65.3822,0,U,58437,999,14619,.37390668E-3,.10042E-3,0
STARLINK-30969,2023-183B,2026-07-14T22:18:51.638976,15.27580683,.00004192,42.9952,43.0715,9.5451,350.5409,0,U,58438,999,14619,.97473665E-4,.2422E-4,0
STARLINK-30951,2023-183C,2026-07-14T22:29:58.226208,15.27548499,.00005038,42.9988,43.1317,15.9804,344.1063,0,U,58439,999,14619,.20047767E-3,.5254E-4,0
STARLINK-30950,2023-183D,2026-07-14T08:18:57.414240,15.27574267,.00007949,42.9984,209.8344,280.2249,79.8513,0,U,58440,999,14840,-.6527576E-5,-.441E-5,0
STARLINK-30942,2023-183E,2026-07-14T23:03:03.696480,15.27579851,.00002258,43.0024,42.4488,300.7039,59.3790,0,U,58441,999,14620,.15687219E-4,.17E-5,0
STARLINK-30959,2023-183F,2026-07-14T07:36:16.612416,15.27581015,.00009238,43.0053,46.2127,256.2114,103.8635,0,U,58442,999,14610,.15917927E-4,.176E-5,0
STARLINK-30971,2023-183G,2026-07-14T21:21:42.692544,15.27570945,.0000633,43.0019,43.6272,278.2559,81.8221,0,U,58443,999,14618,-.20486176E-4,-.825E-5,0
STARLINK-30963,2023-183H,2026-07-13T22:16:53.895648,15.27579823,.00013776,43.0022,48.4524,265.4144,94.6550,0,U,58444,999,14604,.35078434E-4,.703E-5,0
STARLINK-30961,2023-183J,2026-07-13T23:56:36.314592,15.27583601,.00012278,43.0027,48.1107,284.9155,75.1561,0,U,58445,999,14605,.49005213E-4,.1087E-4,0
STARLINK-30975,2023-183K,2026-07-13T23:54:45.014112,15.27582847,.00014425,43.0047,48.0922,264.3370,95.7317,0,U,58446,999,14607,.72734108E-4,.174E-4,0
STARLINK-30976,2023-183L,2026-07-14T22:11:28.019904,15.27574891,.00014512,43.0009,43.0581,264.1916,95.8770,0,U,58447,999,14619,.9313706E-5,-.6E-7,0
STARLINK-30926,2023-183M,2026-07-14T23:06:44.286048,15.27579664,.00014546,43.0047,42.4228,274.2512,85.8174,0,U,58448,999,14620,.28200475E-4,.514E-5,0
STARLINK-30943,2023-183N,2026-07-14T19:26:04.906464,15.27575596,.0000999,43.0024,17.8476,258.5743,101.4996,0,U,58449,999,14647,-.49464124E-4,-.1623E-4,0
STARLINK-30946,2023-183P,2026-07-14T06:31:45.347232,15.27579843,.00013126,43.0029,46.7308,269.7502,90.3200,0,U,58450,999,14609,.46405023E-4,.1015E-4,0
STARLINK-30944,2023-183Q,2026-07-14T00:02:09.876480,15.27550532,.00008308,43.0014,48.1404,299.6252,60.4517,0,U,58451,999,14602,-.7970639E-3,-.2211E-3,0
STARLINK-30928,2023-183R,2026-07-14T00:07:42.647808,15.27604933,.000105,42.9998,48.1700,282.8343,77.2391,0,U,58452,999,14604,-.22442845E-3,-.6437E-4,0
STARLINK-30957,2023-183S,2026-07-14T00:00:19.020960,15.27574312,.00007264,42.9996,48.1363,286.3967,73.6804,0,U,58453,999,14605,.14666886E-3,.3776E-4,0
STARLINK-30966,2023-183T,2026-07-14T00:05:51.390528,15.27569937,.00024815,43.0062,48.1528,253.4420,106.6159,0,U,58454,999,14605,.74657643E-4,.1792E-4,0
STARLINK-30935,2023-183U,2026-07-14T13:19:49.533024,15.27572941,.0001027,43.0031,45.4157,267.7886,92.2848,0,U,58455,999,14613,-.71743E-5,-.459E-5,0
STARLINK-30958,2023-183W,2026-07-14T21:38:09.041856,15.27576565,.00007122,43.0027,42.8603,284.2464,75.8309,0,U,58457,999,14619,.2008314E-5,-.207E-5,0
STARLINK-30962,2023-183X,2026-07-14T21:27:02.274048,15.27575618,.00028171,43.0065,42.8024,259.3739,100.6795,0,U,58458,999,14619,-.44696362E-4,-.1492E-4,0
